OBJECT_NAME,OBJECT_ID,EPOCH,MEAN_MOTION,ECCENTRICITY,INCLINATION,RA_OF_ASC_NODE,ARG_OF_PERICENTER,MEAN_ANOMALY,EPHEMERIS_TYPE,CLASSIFICATION_TYPE,NORAD_CAT_ID,ELEMENT_SET_NO,REV_AT_EPOCH,BSTAR,MEAN_MOTION_DOT,MEAN_MOTION_DDOT
IRIDIUM 135,2017-083A,2026-07-19T07:33:23.166144,14.34217643,.00021101,86.3984,308.5864,94.8546,265.2891,0,U,43070,999,44875,-.9609863E-5,-.7E-7,0
IRIDIUM 138,2017-083B,2026-07-19T06:29:27.060576,14.34217248,.00020331,86.4001,308.3048,94.1505,265.9923,0,U,43071,999,44873,.64172783E-4,.199E-5,0
IRIDIUM 116,2017-083C,2026-07-19T07:24:15.198336,14.34216878,.00025079,86.3988,308.5742,99.3213,260.8267,0,U,43072,999,44877,.37563906E-4,.125E-5,0
IRIDIUM 130,2017-083D,2026-07-19T06:38:35.246976,14.34218899,.00023422,86.3994,308.8661,100.1701,259.9759,0,U,43073,999,44871,.43185876E-4,.141E-5,0
IRIDIUM 151,2017-083E,2026-07-19T06:02:03.215904,14.34217805,.00022782,86.3989,308.6569,95.2809,264.8646,0,U,43074,999,44873,.30386558E-4,.105E-5,0
IRIDIUM 134,2017-083F,2026-07-19T06:56:51.180864,14.34217878,.00022579,86.3989,308.6493,96.6032,263.5420,0,U,43075,999,44870,.6784376E-5,.39E-6,0
IRIDIUM 137,2017-083G,2026-07-19T07:15:07.258176,14.34217635,.00025576,86.3988,308.7376,91.6402,268.5087,0,U,43076,999,44877,-.8990201E-5,-.5E-7,0
IRIDIUM 141,2017-083H,2026-07-19T05:25:31.193472,14.34217368,.00021392,86.3987,308.5982,94.3397,265.8043,0,U,43077,999,44876,.41460581E-4,.136E-5,0
IRIDIUM 153,2017-083J,2026-07-19T04:16:39.384768,14.34217592,.00020271,86.3956,277.0965,96.0914,264.0513,0,U,43078,999,44986,-.2748695E-5,.12E-6,0
IRIDIUM 131,2017-083K,2026-07-19T06:47:43.191456,14.34217399,.0002095,86.3987,308.7624,93.6195,266.5240,0,U,43079,999,44870,-.20155633E-4,-.37E-6,0
IRIDIUM 144,2018-030A,2026-07-19T04:25:47.413056,14.34217270,.00023641,86.3956,277.0224,96.0957,264.0508,0,U,43249,999,43472,.2257783E-4,.83E-6,0
IRIDIUM 149,2018-030B,2026-07-19T04:34:55.422336,14.34217546,.00021334,86.3952,276.9860,93.4057,266.7383,0,U,43250,999,43474,-.7015246E-5,0,0
IRIDIUM 157,2018-030C,2026-07-19T05:02:19.453632,14.34218770,.00022944,86.3955,277.0322,95.0642,265.0816,0,U,43251,999,43472,.32248732E-4,.11E-5,0
IRIDIUM 140,2018-030D,2026-07-19T05:29:43.532448,14.34218632,.00022598,86.3955,277.0369,95.9124,264.2329,0,U,43252,999,43478,.4129375E-4,.135E-5,0
IRIDIUM 145,2018-030E,2026-07-19T05:11:27.489696,14.34217381,.00025696,86.3954,277.0143,98.1421,262.0067,0,U,43253,999,43471,.6949331E-5,.39E-6,0
IRIDIUM 146,2018-030F,2026-07-19T04:44:03.450624,14.34217437,.00022615,86.3955,277.0342,96.2244,263.9210,0,U,43254,999,43472,-.58154E-7,.2E-6,0
IRIDIUM 148,2018-030G,2026-07-19T05:38:51.495072,14.34218913,.00023513,86.3956,277.0619,93.1351,267.0113,0,U,43255,999,43476,.37535897E-4,.125E-5,0
IRIDIUM 142,2018-030H,2026-07-19T04:53:11.434848,14.34217704,.00023435,86.3951,276.9628,95.7308,264.4155,0,U,43256,999,43472,-.1528962E-5,.16E-6,0
IRIDIUM 150,2018-030J,2026-07-19T05:47:59.415360,14.34217282,.00023179,86.3956,277.0649,96.1299,264.0161,0,U,43257,999,43475,.1080311E-4,.5E-6,0
IRIDIUM 143,2018-030K,2026-07-19T05:20:35.462688,14.34218245,.00023822,86.3958,277.1663,96.9067,263.2400,0,U,43258,999,43468,.26614855E-4,.94E-6,0
IRIDIUM 161,2018-047C,2026-07-19T04:47:46.601952,14.43276886,.00021817,86.4457,75.0827,80.6985,279.4463,0,U,43478,999,42975,.383593E-4,.149E-5,0
IRIDIUM 152,2018-047D,2026-07-19T04:41:18.240864,14.34217504,.0002013,86.3930,74.9455,83.9194,276.2231,0,U,43479,999,42707,-.38099866E-4,-.87E-6,0
IRIDIUM 147,2018-047E,2026-07-19T04:50:26.256192,14.34217838,.00022997,86.3934,74.9489,87.6187,272.5272,0,U,43480,999,42707,.20349915E-4,.77E-6,0
IRIDIUM 110,2018-047F,2026-07-19T03:19:06.055392,14.34216746,.00020677,86.3937,75.0681,77.4386,282.7041,0,U,43481,999,42705,.36081998E-4,.121E-5,0
IRIDIUM 162,2018-047G,2026-07-19T02:58:51.896064,14.43279647,.00021895,86.4456,75.0048,86.6560,273.4892,0,U,43482,999,42973,.40961402E-4,.158E-5,0
IRIDIUM 160,2018-061A,2026-07-19T07:02:30.433056,14.34217801,.00022143,86.3939,43.3669,86.9901,273.1548,0,U,43569,999,41797,.27879193E-4,.98E-6,0
IRIDIUM 166,2018-061B,2026-07-19T02:37:38.487936,14.34217663,.00022825,86.3937,43.3939,89.5787,270.5670,0,U,43570,999,41797,-.2617687E-5,.12E-6,0
IRIDIUM 158,2018-061C,2026-07-19T01:51:58.494240,14.34217267,.00021216,86.3938,43.4170,89.0071,271.1368,0,U,43571,999,41793,.185503E-5,.25E-6,0
IRIDIUM 165,2018-061D,2026-07-19T02:28:30.502848,14.34217994,.00022802,86.3939,43.4534,91.5642,268.5815,0,U,43572,999,41796,.22737763E-4,.83E-6,0
IRIDIUM 155,2018-061E,2026-07-19T06:35:06.455328,14.34217730,.00021462,86.3936,43.2491,90.6358,269.5084,0,U,43573,999,41795,.6190358E-5,.37E-6,0
